{"type": "FeatureCollection", "features": [ {"type": "Feature", "properties": {"norad_id": 36996, "name": "FENGYUN 1C DEB", "group": "fengyun-1c-debris", "lat": -80.7036534580047, "lon": -146.3193139379849, "alt_km": 709.7960651257972, "timestamp": "2025-12-26T11:25:45.481960+00:00", "meta": {"OBJECT_NAME": "FENGYUN 1C DEB", "OBJECT_ID": "1999-025ECC", "EPOCH": "2025-12-19T06:51:36.156096", "MEAN_MOTION": 14.11557729, "ECCENTRICITY": 0.0254059, "INCLINATION": 98.2257, "RA_OF_ASC_NODE": 144.9888, "ARG_OF_PERICENTER": 330.3469, "MEAN_ANOMALY": 147.4127, "EPHEMERIS_TYPE": 0, "CLASSIFICATION_TYPE": "U", "NORAD_CAT_ID": 36996, "ELEMENT_SET_NO": 999, "REV_AT_EPOCH": 59784, "BSTAR": 0.00056112, "MEAN_MOTION_DOT": 1.337e-05, "MEAN_MOTION_DDOT": 0}, "tle": {"line1": "1 36996U 99025ECC 25353.28583514  .00001337  00000+0  56112-3 0  9993", "line2": "2 36996  98.2257 144.9888 0254059 330.3469 147.4127 14.11557729597844"}}, "geometry": {"type": "Point", "coordinates": [-146.3193139379849, -80.7036534580047]}}, {"type": "Feature", "properties": {"norad_id": 37003, "name": "FENGYUN 1C DEB", "group": "fengyun-1c-debris", "lat": -66.73399206417922, "lon": 44.797021592649344, "alt_km": 982.7768492973582, "timestamp": "2025-12-26T11:25:45.481969+00:00", "meta": {"OBJECT_NAME": "FENGYUN 1C DEB", "OBJECT_ID": "1999-025ECK", "EPOCH": "2025-12-18T07:48:02.434752", "MEAN_MOTION": 13.96231437, "ECCENTRICITY": 0.00968579, "INCLINATION": 98.8458, "RA_OF_ASC_NODE": 15.7304, "ARG_OF_PERICENTER": 147.1253, "MEAN_ANOMALY": 235.2095, "EPHEMERIS_TYPE": 0, "CLASSIFICATION_TYPE": "U", "NORAD_CAT_ID": 37003, "ELEMENT_SET_NO": 999, "REV_AT_EPOCH": 60735, "BSTAR": 0.00036300048, "MEAN_MOTION_DOT": 4.78e-06, "MEAN_MOTION_DDOT": 0}, "tle": {"line1": "1 37003U 99025ECK 25352.32502818  .00000478  00000+0  36300-3 0  9997", "line2": "2 37003  98.8458  15.7304 0096857 147.1253 235.2095 13.96231437607351"}}, "geometry": {"type": "Point", "coordinates": [44.797021592649344, -66.73399206417922]}}, {"type": "Feature", "properties": {"norad_id": 37006, "name": "FENGYUN 1C DEB", "group": "fengyun-1c-debris", "lat": -20.793652490381657, "lon": -105.986366734509, "alt_km": 852.4574791693767, "timestamp": "2025-12-26T11:25:45.481978+00:00", "meta": {"OBJECT_NAME": "FENGYUN 1C DEB", "OBJECT_ID": "1999-025ECN", "EPOCH": "2025-12-23T10:36:30.026880", "MEAN_MOTION": 14.48972917, "ECCENTRICITY": 0.02551791, "INCLINATION": 99.298, "RA_OF_ASC_NODE": 247.1031, "ARG_OF_PERICENTER": 216.2092, "MEAN_ANOMALY": 142.159, "EPHEMERIS_TYPE": 0, "CLASSIFICATION_TYPE": "U", "NORAD_CAT_ID": 37006, "ELEMENT_SET_NO": 999, "REV_AT_EPOCH": 65269, "BSTAR": 0.00065687937, "MEAN_MOTION_DOT": 3.705e-05, "MEAN_MOTION_DDOT": 0}, "tle": {"line1": "1 37006U 99025ECN 25357.44201420  .00003705  00000+0  65688-3 0  9990", "line2": "2 37006  99.2980 247.1031 0255179 216.2092 142.1590 14.48972917652696"}}, "geometry": {"type": "Point", "coordinates": [-105.986366734509, -20.793652490381657]}}, {"type": "Feature", "properties": {"norad_id": 37008, "name": "FENGYUN 1C DEB", "group": "fengyun-1c-debris", "lat": 26.00921838808256, "lon": -56.005919699317516, "alt_km": 843.894780770308, "timestamp": "2025-12-26T11:25:45.481987+00:00", "meta": {"OBJECT_NAME": "FENGYUN 1C DEB", "OBJECT_ID": "1999-025ECQ", "EPOCH": "2025-12-25T19:20:52.190304", "MEAN_MOTION": 14.07978939, "ECCENTRICITY": 0.0062838, "INCLINATION": 99.1352, "RA_OF_ASC_NODE": 118.8133, "ARG_OF_PERICENTER": 217.661, "MEAN_ANOMALY": 142.015, "EPHEMERIS_TYPE": 0, "CLASSIFICATION_TYPE": "U", "NORAD_CAT_ID": 37008, "ELEMENT_SET_NO": 999, "REV_AT_EPOCH": 60498, "BSTAR": 0.00099857, "MEAN_MOTION_DOT": 1.682e-05, "MEAN_MOTION_DDOT": 0}, "tle": {"line1": "1 37008U 99025ECQ 25359.80615961  .00001682  00000+0  99857-3 0  9990", "line2": "2 37008  99.1352 118.8133 0062838 217.6610 142.0150 14.07978939604981"}}, "geometry": {"type": "Point", "coordinates": [-56.005919699317516, 26.00921838808256]}}, {"type": "Feature", "properties": {"norad_id": 37017, "name": "FENGYUN 1C DEB", "group": "fengyun-1c-debris", "lat": -59.8348785199431, "lon": -39.166368478177446, "alt_km": 580.369567699955, "timestamp": "2025-12-26T11:25:45.481996+00:00", "meta": {"OBJECT_NAME": "FENGYUN 1C DEB", "OBJECT_ID": "1999-025ECZ", "EPOCH": "2025-12-25T14:01:57.704160", "MEAN_MOTION": 14.40919347, "ECCENTRICITY": 0.0281, "INCLINATION": 98.792, "RA_OF_ASC_NODE": 304.4725, "ARG_OF_PERICENTER": 327.0532, "MEAN_ANOMALY": 31.341, "EPHEMERIS_TYPE": 0, "CLASSIFICATION_TYPE": "U", "NORAD_CAT_ID": 37017, "ELEMENT_SET_NO": 999, "REV_AT_EPOCH": 61346, "BSTAR": 0.0020644, "MEAN_MOTION_DOT": 0.00010567, "MEAN_MOTION_DDOT": 0}, "tle": {"line1": "1 37017U 99025ECZ 25359.58469565  .00010567  00000+0  20644-2 0  9991", "line2": "2 37017  98.7920 304.4725 0281000 327.0532  31.3410 14.40919347613467"}}, "geometry": {"type": "Point", "coordinates": [-39.166368478177446, -59.8348785199431]}}, {"type": "Feature", "properties": {"norad_id": 37021, "name": "FENGYUN 1C DEB", "group": "fengyun-1c-debris", "lat": -15.409434642253961, "lon": 19.032443518821506, "alt_km": 874.5790556424408, "timestamp": "2025-12-26T11:25:45.482005+00:00", "meta": {"OBJECT_NAME": "FENGYUN 1C DEB", "OBJECT_ID": "1999-025EDD", "EPOCH": "2025-12-22T06:58:32.171232", "MEAN_MOTION": 14.32310959, "ECCENTRICITY": 0.01760624, "INCLINATION": 98.3842, "RA_OF_ASC_NODE": 12.6537, "ARG_OF_PERICENTER": 223.2786, "MEAN_ANOMALY": 149.9387, "EPHEMERIS_TYPE": 0, "CLASSIFICATION_TYPE": "U", "NORAD_CAT_ID": 37021, "ELEMENT_SET_NO": 999, "REV_AT_EPOCH": 70191, "BSTAR": 0.00065126431, "MEAN_MOTION_DOT": 2.04e-05, "MEAN_MOTION_DDOT": 0}, "tle": {"line1": "1 37021U 99025EDD 25356.29065013  .00002040  00000+0  65126-3 0  9993", "line2": "2 37021  98.3842  12.6537 0176062 223.2786 149.9387 14.32310959701911"}}, "geometry": {"type": "Point", "coordinates": [19.032443518821506, -15.409434642253961]}}, {"type": "Feature", "properties": {"norad_id": 37028, "name": "FENGYUN 1C DEB", "group": "fengyun-1c-debris", "lat": -61.1450784702097, "lon": 71.67793986587787, "alt_km": 847.5395179647576, "timestamp": "2025-12-26T11:25:45.482014+00:00", "meta": {"OBJECT_NAME": "FENGYUN 1C DEB", "OBJECT_ID": "1999-025EDL", "EPOCH": "2025-12-25T00:32:25.103328", "MEAN_MOTION": 14.22825212, "ECCENTRICITY": 0.00343044, "INCLINATION": 99.2462, "RA_OF_ASC_NODE": 267.3486, "ARG_OF_PERICENTER": 64.0636, "MEAN_ANOMALY": 296.4069, "EPHEMERIS_TYPE": 0, "CLASSIFICATION_TYPE": "U", "NORAD_CAT_ID": 37028, "ELEMENT_SET_NO": 999, "REV_AT_EPOCH": 60650, "BSTAR": 0.0018913488, "MEAN_MOTION_DOT": 4.225e-05, "MEAN_MOTION_DDOT": 0}, "tle": {"line1": "1 37028U 99025EDL 25359.02251277  .00004225  00000+0  18913-2 0  9991", "line2": "2 37028  99.2462 267.3486 0034304  64.0636 296.4069 14.22825212606501"}}, "geometry": {"type": "Point", "coordinates": [71.67793986587787, -61.1450784702097]}}, {"type": "Feature", "properties": {"norad_id": 37036, "name": "FENGYUN 1C DEB", "group": "fengyun-1c-debris", "lat": 44.210524780764864, "lon": -178.78175604730254, "alt_km": 919.2357797056029, "timestamp": "2025-12-26T11:25:45.482023+00:00", "meta": {"OBJECT_NAME": "FENGYUN 1C DEB", "OBJECT_ID": "1999-025EDU", "EPOCH": "2025-12-23T05:48:29.509344", "MEAN_MOTION": 14.03580297, "ECCENTRICITY": 0.01241015, "INCLINATION": 98.7147, "RA_OF_ASC_NODE": 349.5369, "ARG_OF_PERICENTER": 25.9837, "MEAN_ANOMALY": 334.749, "EPHEMERIS_TYPE": 0, "CLASSIFICATION_TYPE": "U", "NORAD_CAT_ID": 37036, "ELEMENT_SET_NO": 999, "REV_AT_EPOCH": 63895, "BSTAR": 0.00024663063, "MEAN_MOTION_DOT": 3.73e-06, "MEAN_MOTION_DDOT": 0}, "tle": {"line1": "1 37036U 99025EDU 25357.24200821  .00000373  00000+0  24663-3 0  9991", "line2": "2 37036  98.7147 349.5369 0124101  25.9837 334.7490 14.03580297638959"}}, "geometry": {"type": "Point", "coordinates": [-178.78175604730254, 44.210524780764864]}}, {"type": "Feature", "properties": {"norad_id": 37044, "name": "FENGYUN 1C DEB", "group": "fengyun-1c-debris", "lat": 73.76718648082671, "lon": -41.46580378697138, "alt_km": 639.1522879754793, "timestamp": "2025-12-26T11:25:45.482032+00:00", "meta": {"OBJECT_NAME": "FENGYUN 1C DEB", "OBJECT_ID": "1999-025EEC", "EPOCH": "2025-12-26T02:10:55.629696", "MEAN_MOTION": 13.71034529, "ECCENTRICITY": 0.05062, "INCLINATION": 98.9617, "RA_OF_ASC_NODE": 105.3546, "ARG_OF_PERICENTER": 126.1701, "MEAN_ANOMALY": 238.7382, "EPHEMERIS_TYPE": 0, "CLASSIFICATION_TYPE": "U", "NORAD_CAT_ID": 37044, "ELEMENT_SET_NO": 999, "REV_AT_EPOCH": 84041, "BSTAR": 0.0033301, "MEAN_MOTION_DOT": 7.423e-05, "MEAN_MOTION_DDOT": 0}, "tle": {"line1": "1 37044U 99025EEC 25360.09092164  .00007423  00000+0  33301-2 0  9997", "line2": "2 37044  98.9617 105.3546 0506200 126.1701 238.7382 13.71034529840410"}}, "geometry": {"type": "Point", "coordinates": [-41.46580378697138, 73.76718648082671]}}, {"type": "Feature", "properties": {"norad_id": 37046, "name": "FENGYUN 1C DEB", "group": "fengyun-1c-debris", "lat": -70.28760319117835, "lon": 39.1702170205755, "alt_km": 783.4422738998301, "timestamp": "2025-12-26T11:25:45.482041+00:00", "meta": {"OBJECT_NAME": "FENGYUN 1C DEB", "OBJECT_ID": "1999-025EEE", "EPOCH": "2025-12-23T19:43:26.478336", "MEAN_MOTION": 14.24875514, "ECCENTRICITY": 0.00488166, "INCLINATION": 98.5434, "RA_OF_ASC_NODE": 11.7811, "ARG_OF_PERICENTER": 274.2628, "MEAN_ANOMALY": 85.2974, "EPHEMERIS_TYPE": 0, "CLASSIFICATION_TYPE": "U", "NORAD_CAT_ID": 37046, "ELEMENT_SET_NO": 999, "REV_AT_EPOCH": 64339, "BSTAR": 0.00061363101, "MEAN_MOTION_DOT": 1.407e-05, "MEAN_MOTION_DDOT": 0}, "tle": {"line1": "1 37046U 99025EEE 25357.82183424  .00001407  00000+0  61363-3 0  9992", "line2": "2 37046  98.5434  11.7811 0048816 274.2628  85.2974 14.24875514643393"}}, "geometry": {"type": "Point", "coordinates": [39.1702170205755, -70.28760319117835]}}]}